[{"OBJECT_NAME":"STARLINK-36792","OBJECT_ID":"2026-032H","EPOCH":"2026-03-09T22:32:24.452160","MEAN_MOTION":15.75254774,"ECCENTRICITY":0.00013604,"INCLINATION":97.285,"RA_OF_ASC_NODE":255.4526,"ARG_OF_PERICENTER":82.2848,"MEAN_ANOMALY":277.8572,"EPHEMERIS_TYPE":0,"CLASSIFICATION_TYPE":"U","NORAD_CAT_ID":67804,"ELEMENT_SET_NO":999,"REV_AT_EPOCH":482,"BSTAR":0.0012507492,"MEAN_MOTION_DOT":0.00191198,"MEAN_MOTION_DDOT":0},{"OBJECT_NAME":"FENGYUN 1C DEB","OBJECT_ID":"1999-025AMT","EPOCH":"2026-03-09T00:15:23.574528","MEAN_MOTION":15.70909629,"ECCENTRICITY":0.00138927,"INCLINATION":99.0703,"RA_OF_ASC_NODE":83.4899,"ARG_OF_PERICENTER":75.2074,"MEAN_ANOMALY":313.8054,"EPHEMERIS_TYPE":0,"CLASSIFICATION_TYPE":"U","NORAD_CAT_ID":30612,"ELEMENT_SET_NO":999,"REV_AT_EPOCH":1589,"BSTAR":0.0070902188,"MEAN_MOTION_DOT":0.00977467,"MEAN_MOTION_DDOT":0}]
